{"type": "FeatureCollection", "features": [ {"type": "Feature", "properties": {"norad_id": 66855, "name": "STARLINK-36090", "group": "last-30-days", "lat": -12.89253887940412, "lon": 102.4898940698431, "alt_km": 305.3049094420103, "timestamp": "2025-12-13T15:35:10.878157+00:00", "meta": {"OBJECT_NAME": "STARLINK-36090", "OBJECT_ID": "2025-281H", "EPOCH": "2025-12-12T20:00:01.999872", "MEAN_MOTION": 15.90833336, "ECCENTRICITY": 0.0001723, "INCLINATION": 43.0012, "RA_OF_ASC_NODE": 121.771, "ARG_OF_PERICENTER": 279.0894, "MEAN_ANOMALY": 65.0312, "EPHEMERIS_TYPE": 0, "CLASSIFICATION_TYPE": "U", "NORAD_CAT_ID": 66855, "ELEMENT_SET_NO": 999, "REV_AT_EPOCH": 130, "BSTAR": -0.0034586814, "MEAN_MOTION_DOT": -0.01004809, "MEAN_MOTION_DDOT": 0}, "tle": {"line1": "1 66855U 25281H   25346.83335648 -.01004809  00000+0 -34587-2 0  9990", "line2": "2 66855  43.0012 121.7710 0001723 279.0894  65.0312 15.90833336  1305"}}, "geometry": {"type": "Point", "coordinates": [102.4898940698431, -12.89253887940412]}}, {"type": "Feature", "properties": {"norad_id": 66856, "name": "STARLINK-36072", "group": "last-30-days", "lat": -10.90303071885082, "lon": 104.77154488723383, "alt_km": 304.9448758692788, "timestamp": "2025-12-13T15:35:10.878167+00:00", "meta": {"OBJECT_NAME": "STARLINK-36072", "OBJECT_ID": "2025-281J", "EPOCH": "2025-12-12T20:00:01.999872", "MEAN_MOTION": 15.90877289, "ECCENTRICITY": 0.00016554, "INCLINATION": 43.001, "RA_OF_ASC_NODE": 121.7636, "ARG_OF_PERICENTER": 283.3435, "MEAN_ANOMALY": 63.6378, "EPHEMERIS_TYPE": 0, "CLASSIFICATION_TYPE": "U", "NORAD_CAT_ID": 66856, "ELEMENT_SET_NO": 999, "REV_AT_EPOCH": 141, "BSTAR": -0.0034399911, "MEAN_MOTION_DOT": -0.01001959, "MEAN_MOTION_DDOT": 0}, "tle": {"line1": "1 66856U 25281J   25346.83335648 -.01001959  00000+0 -34400-2 0  9998", "line2": "2 66856  43.0010 121.7636 0001655 283.3435  63.6378 15.90877289  1417"}}, "geometry": {"type": "Point", "coordinates": [104.77154488723383, -10.90303071885082]}}, {"type": "Feature", "properties": {"norad_id": 66857, "name": "STARLINK-36083", "group": "last-30-days", "lat": -9.239653805880613, "lon": 106.64132864150535, "alt_km": 304.66086737724254, "timestamp": "2025-12-13T15:35:10.878177+00:00", "meta": {"OBJECT_NAME": "STARLINK-36083", "OBJECT_ID": "2025-281K", "EPOCH": "2025-12-12T20:00:01.999872", "MEAN_MOTION": 15.90922646, "ECCENTRICITY": 0.00017538, "INCLINATION": 43.0008, "RA_OF_ASC_NODE": 121.7578, "ARG_OF_PERICENTER": 284.2287, "MEAN_ANOMALY": 65.1227, "EPHEMERIS_TYPE": 0, "CLASSIFICATION_TYPE": "U", "NORAD_CAT_ID": 66857, "ELEMENT_SET_NO": 999, "REV_AT_EPOCH": 141, "BSTAR": -0.003457557, "MEAN_MOTION_DOT": -0.01008723, "MEAN_MOTION_DDOT": 0}, "tle": {"line1": "1 66857U 25281K   25346.83335648 -.01008723  00000+0 -34576-2 0  9999", "line2": "2 66857  43.0008 121.7578 0001753 284.2287  65.1227 15.90922646  1412"}}, "geometry": {"type": "Point", "coordinates": [106.64132864150535, -9.239653805880613]}}, {"type": "Feature", "properties": {"norad_id": 66858, "name": "STARLINK-35118", "group": "last-30-days", "lat": -7.493308961891418, "lon": 108.57370305000708, "alt_km": 304.5108173953131, "timestamp": "2025-12-13T15:35:10.878188+00:00", "meta": {"OBJECT_NAME": "STARLINK-35118", "OBJECT_ID": "2025-281L", "EPOCH": "2025-12-12T20:00:01.999872", "MEAN_MOTION": 15.90978536, "ECCENTRICITY": 0.00018119, "INCLINATION": 43.0012, "RA_OF_ASC_NODE": 121.7511, "ARG_OF_PERICENTER": 282.2743, "MEAN_ANOMALY": 69.5718, "EPHEMERIS_TYPE": 0, "CLASSIFICATION_TYPE": "U", "NORAD_CAT_ID": 66858, "ELEMENT_SET_NO": 999, "REV_AT_EPOCH": 130, "BSTAR": -0.0035372512, "MEAN_MOTION_DOT": -0.01032197, "MEAN_MOTION_DDOT": 0}, "tle": {"line1": "1 66858U 25281L   25346.83335648 -.01032197  00000+0 -35373-2 0  9998", "line2": "2 66858  43.0012 121.7511 0001811 282.2743  69.5718 15.90978536  1305"}}, "geometry": {"type": "Point", "coordinates": [108.57370305000708, -7.493308961891418]}}, {"type": "Feature", "properties": {"norad_id": 66859, "name": "STARLINK-35646", "group": "last-30-days", "lat": -5.557432945517238, "lon": 110.68779736892198, "alt_km": 304.41581054142625, "timestamp": "2025-12-13T15:35:10.878200+00:00", "meta": {"OBJECT_NAME": "STARLINK-35646", "OBJECT_ID": "2025-281M", "EPOCH": "2025-12-12T20:00:01.999872", "MEAN_MOTION": 15.91043522, "ECCENTRICITY": 0.00018941, "INCLINATION": 43.0011, "RA_OF_ASC_NODE": 121.7444, "ARG_OF_PERICENTER": 280.2527, "MEAN_ANOMALY": 74.3813, "EPHEMERIS_TYPE": 0, "CLASSIFICATION_TYPE": "U", "NORAD_CAT_ID": 66859, "ELEMENT_SET_NO": 999, "REV_AT_EPOCH": 141, "BSTAR": -0.0036873926, "MEAN_MOTION_DOT": -0.01074394, "MEAN_MOTION_DDOT": 0}, "tle": {"line1": "1 66859U 25281M   25346.83335648 -.01074394  00000+0 -36874-2 0  9991", "line2": "2 66859  43.0011 121.7444 0001894 280.2527  74.3813 15.91043522  1410"}}, "geometry": {"type": "Point", "coordinates": [110.68779736892198, -5.557432945517238]}}, {"type": "Feature", "properties": {"norad_id": 66860, "name": "STARLINK-35987", "group": "last-30-days", "lat": 4.4480948096981034, "lon": 121.43251550068271, "alt_km": 303.6526310328336, "timestamp": "2025-12-13T15:35:10.878212+00:00", "meta": {"OBJECT_NAME": "STARLINK-35987", "OBJECT_ID": "2025-281N", "EPOCH": "2025-12-12T20:00:01.999872", "MEAN_MOTION": 15.91251416, "ECCENTRICITY": 0.00017528, "INCLINATION": 43.0011, "RA_OF_ASC_NODE": 121.7076, "ARG_OF_PERICENTER": 279.8025, "MEAN_ANOMALY": 89.2992, "EPHEMERIS_TYPE": 0, "CLASSIFICATION_TYPE": "U", "NORAD_CAT_ID": 66860, "ELEMENT_SET_NO": 999, "REV_AT_EPOCH": 142, "BSTAR": -0.0041647193, "MEAN_MOTION_DOT": -0.0137512, "MEAN_MOTION_DDOT": 0.00053718174}, "tle": {"line1": "1 66860U 25281N   25346.83335648 -.01375120  53718-3 -41647-2 0  9996", "line2": "2 66860  43.0011 121.7076 0001752 279.8025  89.2992 15.91251416  1420"}}, "geometry": {"type": "Point", "coordinates": [121.43251550068271, 4.4480948096981034]}}, {"type": "Feature", "properties": {"norad_id": 66861, "name": "STARLINK-35991", "group": "last-30-days", "lat": -1.6195692953939258, "lon": 114.92785622751975, "alt_km": 304.2755410416212, "timestamp": "2025-12-13T15:35:10.878222+00:00", "meta": {"OBJECT_NAME": "STARLINK-35991", "OBJECT_ID": "2025-281P", "EPOCH": "2025-12-12T20:00:01.999872", "MEAN_MOTION": 15.91165179, "ECCENTRICITY": 0.00017094, "INCLINATION": 43.0013, "RA_OF_ASC_NODE": 121.7298, "ARG_OF_PERICENTER": 280.5299, "MEAN_ANOMALY": 79.8192, "EPHEMERIS_TYPE": 0, "CLASSIFICATION_TYPE": "U", "NORAD_CAT_ID": 66861, "ELEMENT_SET_NO": 999, "REV_AT_EPOCH": 142, "BSTAR": -0.0040449549, "MEAN_MOTION_DOT": -0.01330132, "MEAN_MOTION_DDOT": 0.00050501595}, "tle": {"line1": "1 66861U 25281P   25346.83335648 -.01330132  50502-3 -40450-2 0  9990", "line2": "2 66861  43.0013 121.7298 0001709 280.5299  79.8192 15.91165179  1420"}}, "geometry": {"type": "Point", "coordinates": [114.92785622751975, -1.6195692953939258]}}, {"type": "Feature", "properties": {"norad_id": 66862, "name": "STARLINK-35974", "group": "last-30-days", "lat": -3.491221199842431, "lon": 112.91992012024912, "alt_km": 304.4246239026197, "timestamp": "2025-12-13T15:35:10.878232+00:00", "meta": {"OBJECT_NAME": "STARLINK-35974", "OBJECT_ID": "2025-281Q", "EPOCH": "2025-12-12T20:00:01.999872", "MEAN_MOTION": 15.91115992, "ECCENTRICITY": 0.0001885, "INCLINATION": 43.0011, "RA_OF_ASC_NODE": 121.7369, "ARG_OF_PERICENTER": 278.5307, "MEAN_ANOMALY": 79.1148, "EPHEMERIS_TYPE": 0, "CLASSIFICATION_TYPE": "U", "NORAD_CAT_ID": 66862, "ELEMENT_SET_NO": 999, "REV_AT_EPOCH": 131, "BSTAR": -0.0039222815, "MEAN_MOTION_DOT": -0.01287026, "MEAN_MOTION_DDOT": 0.0004752353}, "tle": {"line1": "1 66862U 25281Q   25346.83335648 -.01287026  47524-3 -39223-2 0  9990", "line2": "2 66862  43.0011 121.7369 0001885 278.5307  79.1148 15.91115992  1310"}}, "geometry": {"type": "Point", "coordinates": [112.91992012024912, -3.491221199842431]}}, {"type": "Feature", "properties": {"norad_id": 66863, "name": "STARLINK-36134", "group": "last-30-days", "lat": 0.7963519294194185, "lon": 117.51242691166614, "alt_km": 304.03094594600225, "timestamp": "2025-12-13T15:35:10.878242+00:00", "meta": {"OBJECT_NAME": "STARLINK-36134", "OBJECT_ID": "2025-281R", "EPOCH": "2025-12-12T20:00:01.999872", "MEAN_MOTION": 15.91200386, "ECCENTRICITY": 0.00016438, "INCLINATION": 43.0015, "RA_OF_ASC_NODE": 121.721, "ARG_OF_PERICENTER": 283.7399, "MEAN_ANOMALY": 80.1413, "EPHEMERIS_TYPE": 0, "CLASSIFICATION_TYPE": "U", "NORAD_CAT_ID": 66863, "ELEMENT_SET_NO": 999, "REV_AT_EPOCH": 142, "BSTAR": -0.0041612285, "MEAN_MOTION_DOT": -0.01370384, "MEAN_MOTION_DDOT": 0.00053353653}, "tle": {"line1": "1 66863U 25281R   25346.83335648 -.01370384  53354-3 -41612-2 0  9994", "line2": "2 66863  43.0015 121.7210 0001643 283.7399  80.1413 15.91200386  1422"}}, "geometry": {"type": "Point", "coordinates": [117.51242691166614, 0.7963519294194185]}}, {"type": "Feature", "properties": {"norad_id": 66864, "name": "STARLINK-36070", "group": "last-30-days", "lat": 2.571134449611493, "lon": 119.41287872060131, "alt_km": 303.8275516290023, "timestamp": "2025-12-13T15:35:10.878251+00:00", "meta": {"OBJECT_NAME": "STARLINK-36070", "OBJECT_ID": "2025-281S", "EPOCH": "2025-12-12T20:00:01.999872", "MEAN_MOTION": 15.91223318, "ECCENTRICITY": 0.00017071, "INCLINATION": 43.0015, "RA_OF_ASC_NODE": 121.7143, "ARG_OF_PERICENTER": 281.2908, "MEAN_ANOMALY": 85.1095, "EPHEMERIS_TYPE": 0, "CLASSIFICATION_TYPE": "U", "NORAD_CAT_ID": 66864, "ELEMENT_SET_NO": 999, "REV_AT_EPOCH": 145, "BSTAR": -0.0041346008, "MEAN_MOTION_DOT": -0.0136332, "MEAN_MOTION_DDOT": 0.00052862505}, "tle": {"line1": "1 66864U 25281S   25346.83335648 -.01363320  52863-3 -41346-2 0  9995", "line2": "2 66864  43.0015 121.7143 0001707 281.2908  85.1095 15.91223318  1452"}}, "geometry": {"type": "Point", "coordinates": [119.41287872060131, 2.571134449611493]}}]}